{"type": "FeatureCollection", "features": [ {"type": "Feature", "properties": {"norad_id": 34874, "name": "COSMOS 2251 DEB", "group": "cosmos-2251-debris", "lat": 71.5660384199658, "lon": 136.65947095403828, "alt_km": 729.7782152914424, "timestamp": "2025-12-10T16:57:12.034259+00:00", "meta": {"OBJECT_NAME": "COSMOS 2251 DEB", "OBJECT_ID": "1993-036ACM", "EPOCH": "2025-12-08T12:49:57.989280", "MEAN_MOTION": 14.36277608, "ECCENTRICITY": 0.00511791, "INCLINATION": 74.0397, "RA_OF_ASC_NODE": 81.487, "ARG_OF_PERICENTER": 108.123, "MEAN_ANOMALY": 268.2931, "EPHEMERIS_TYPE": 0, "CLASSIFICATION_TYPE": "U", "NORAD_CAT_ID": 34874, "ELEMENT_SET_NO": 999, "REV_AT_EPOCH": 86984, "BSTAR": 0.0015220199, "MEAN_MOTION_DOT": 4.491e-05, "MEAN_MOTION_DDOT": 0}, "tle": {"line1": "1 34874U 93036ACM 25342.53469895  .00004491  00000+0  15220-2 0  9991", "line2": "2 34874  74.0397  81.4870 0051179 108.1230 268.2931 14.36277608869844"}}, "geometry": {"type": "Point", "coordinates": [136.65947095403828, 71.5660384199658]}}, {"type": "Feature", "properties": {"norad_id": 34875, "name": "COSMOS 2251 DEB", "group": "cosmos-2251-debris", "lat": 39.53194049954487, "lon": 175.68323750951225, "alt_km": 730.8279560359488, "timestamp": "2025-12-10T16:57:12.034270+00:00", "meta": {"OBJECT_NAME": "COSMOS 2251 DEB", "OBJECT_ID": "1993-036ACN", "EPOCH": "2025-12-08T22:15:07.367904", "MEAN_MOTION": 14.48903769, "ECCENTRICITY": 0.0016077, "INCLINATION": 74.0434, "RA_OF_ASC_NODE": 165.3578, "ARG_OF_PERICENTER": 289.2326, "MEAN_ANOMALY": 195.3832, "EPHEMERIS_TYPE": 0, "CLASSIFICATION_TYPE": "U", "NORAD_CAT_ID": 34875, "ELEMENT_SET_NO": 999, "REV_AT_EPOCH": 87700, "BSTAR": 0.00057345, "MEAN_MOTION_DOT": 2.147e-05, "MEAN_MOTION_DDOT": 0}, "tle": {"line1": "1 34875U 93036ACN 25342.92716861  .00002147  00000+0  57345-3 0  9994", "line2": "2 34875  74.0434 165.3578 0016077 289.2326 195.3832 14.48903769877003"}}, "geometry": {"type": "Point", "coordinates": [175.68323750951225, 39.53194049954487]}}, {"type": "Feature", "properties": {"norad_id": 34878, "name": "COSMOS 2251 DEB", "group": "cosmos-2251-debris", "lat": -34.25478757259327, "lon": -118.15674606293018, "alt_km": 1424.7212244684815, "timestamp": "2025-12-10T16:57:12.034279+00:00", "meta": {"OBJECT_NAME": "COSMOS 2251 DEB", "OBJECT_ID": "1993-036ACR", "EPOCH": "2025-12-09T11:24:21.665664", "MEAN_MOTION": 13.44185831, "ECCENTRICITY": 0.04353122, "INCLINATION": 73.9652, "RA_OF_ASC_NODE": 52.502, "ARG_OF_PERICENTER": 36.6708, "MEAN_ANOMALY": 343.8238, "EPHEMERIS_TYPE": 0, "CLASSIFICATION_TYPE": "U", "NORAD_CAT_ID": 34878, "ELEMENT_SET_NO": 999, "REV_AT_EPOCH": 81229, "BSTAR": 0.00088072379, "MEAN_MOTION_DOT": 8.84e-06, "MEAN_MOTION_DDOT": 0}, "tle": {"line1": "1 34878U 93036ACR 25343.47525076  .00000884  00000+0  88072-3 0  9991", "line2": "2 34878  73.9652  52.5020 0435312  36.6708 343.8238 13.44185831812297"}}, "geometry": {"type": "Point", "coordinates": [-118.15674606293018, -34.25478757259327]}}, {"type": "Feature", "properties": {"norad_id": 34882, "name": "COSMOS 2251 DEB", "group": "cosmos-2251-debris", "lat": -65.42101935842821, "lon": 88.19056932849342, "alt_km": 710.4953007496442, "timestamp": "2025-12-10T16:57:12.034289+00:00", "meta": {"OBJECT_NAME": "COSMOS 2251 DEB", "OBJECT_ID": "1993-036ACV", "EPOCH": "2025-12-10T02:39:44.422848", "MEAN_MOTION": 14.61589215, "ECCENTRICITY": 0.00827465, "INCLINATION": 74.0466, "RA_OF_ASC_NODE": 230.6168, "ARG_OF_PERICENTER": 358.2159, "MEAN_ANOMALY": 1.8698, "EPHEMERIS_TYPE": 0, "CLASSIFICATION_TYPE": "U", "NORAD_CAT_ID": 34882, "ELEMENT_SET_NO": 999, "REV_AT_EPOCH": 88486, "BSTAR": 0.00027513472, "MEAN_MOTION_DOT": 1.403e-05, "MEAN_MOTION_DDOT": 0}, "tle": {"line1": "1 34882U 93036ACV 25344.11093082  .00001403  00000+0  27513-3 0  9996", "line2": "2 34882  74.0466 230.6168 0082746 358.2159   1.8698 14.61589215884868"}}, "geometry": {"type": "Point", "coordinates": [88.19056932849342, -65.42101935842821]}}, {"type": "Feature", "properties": {"norad_id": 34883, "name": "COSMOS 2251 DEB", "group": "cosmos-2251-debris", "lat": 13.88893120364038, "lon": 70.5236653846385, "alt_km": 757.7344776760538, "timestamp": "2025-12-10T16:57:12.034299+00:00", "meta": {"OBJECT_NAME": "COSMOS 2251 DEB", "OBJECT_ID": "1993-036ACW", "EPOCH": "2025-12-10T05:18:22.813632", "MEAN_MOTION": 14.51351166, "ECCENTRICITY": 0.0094898, "INCLINATION": 74.1992, "RA_OF_ASC_NODE": 67.4125, "ARG_OF_PERICENTER": 252.9159, "MEAN_ANOMALY": 106.1592, "EPHEMERIS_TYPE": 0, "CLASSIFICATION_TYPE": "U", "NORAD_CAT_ID": 34883, "ELEMENT_SET_NO": 999, "REV_AT_EPOCH": 86403, "BSTAR": 0.0070011, "MEAN_MOTION_DOT": 0.00029675, "MEAN_MOTION_DDOT": 0}, "tle": {"line1": "1 34883U 93036ACW 25344.22109738  .00029675  00000+0  70011-2 0  9996", "line2": "2 34883  74.1992  67.4125 0094898 252.9159 106.1592 14.51351166864034"}}, "geometry": {"type": "Point", "coordinates": [70.5236653846385, 13.88893120364038]}}, {"type": "Feature", "properties": {"norad_id": 34884, "name": "COSMOS 2251 DEB", "group": "cosmos-2251-debris", "lat": 24.34169544598561, "lon": 68.2661304313063, "alt_km": 596.7427620331846, "timestamp": "2025-12-10T16:57:12.034310+00:00", "meta": {"OBJECT_NAME": "COSMOS 2251 DEB", "OBJECT_ID": "1993-036ACX", "EPOCH": "2025-12-10T05:41:49.872192", "MEAN_MOTION": 14.8986558, "ECCENTRICITY": 0.0002359, "INCLINATION": 74.0169, "RA_OF_ASC_NODE": 61.7548, "ARG_OF_PERICENTER": 96.9395, "MEAN_ANOMALY": 294.0838, "EPHEMERIS_TYPE": 0, "CLASSIFICATION_TYPE": "U", "NORAD_CAT_ID": 34884, "ELEMENT_SET_NO": 999, "REV_AT_EPOCH": 87768, "BSTAR": 0.0040899, "MEAN_MOTION_DOT": 0.00039512, "MEAN_MOTION_DDOT": 0}, "tle": {"line1": "1 34884U 93036ACX 25344.23738278  .00039512  00000+0  40899-2 0  9997", "line2": "2 34884  74.0169  61.7548 0002359  96.9395 294.0838 14.89865580877681"}}, "geometry": {"type": "Point", "coordinates": [68.2661304313063, 24.34169544598561]}}, {"type": "Feature", "properties": {"norad_id": 34885, "name": "COSMOS 2251 DEB", "group": "cosmos-2251-debris", "lat": -12.510002571759816, "lon": 10.493200639404309, "alt_km": 722.916878305663, "timestamp": "2025-12-10T16:57:12.034319+00:00", "meta": {"OBJECT_NAME": "COSMOS 2251 DEB", "OBJECT_ID": "1993-036ACY", "EPOCH": "2025-12-10T12:52:39.641088", "MEAN_MOTION": 14.51483314, "ECCENTRICITY": 0.0015215, "INCLINATION": 74.0309, "RA_OF_ASC_NODE": 187.1701, "ARG_OF_PERICENTER": 272.7275, "MEAN_ANOMALY": 113.3472, "EPHEMERIS_TYPE": 0, "CLASSIFICATION_TYPE": "U", "NORAD_CAT_ID": 34885, "ELEMENT_SET_NO": 999, "REV_AT_EPOCH": 87447, "BSTAR": 0.00091853, "MEAN_MOTION_DOT": 3.65e-05, "MEAN_MOTION_DDOT": 0}, "tle": {"line1": "1 34885U 93036ACY 25344.53656992  .00003650  00000+0  91853-3 0  9994", "line2": "2 34885  74.0309 187.1701 0015215 272.7275 113.3472 14.51483314874479"}}, "geometry": {"type": "Point", "coordinates": [10.493200639404309, -12.510002571759816]}}, {"type": "Feature", "properties": {"norad_id": 34886, "name": "COSMOS 2251 DEB", "group": "cosmos-2251-debris", "lat": 2.0407497282563716, "lon": -174.01139501273957, "alt_km": 432.5996687013758, "timestamp": "2025-12-10T16:57:12.034329+00:00", "meta": {"OBJECT_NAME": "COSMOS 2251 DEB", "OBJECT_ID": "1993-036ACZ", "EPOCH": "2025-12-06T20:50:12.525792", "MEAN_MOTION": 15.37603061, "ECCENTRICITY": 0.00307569, "INCLINATION": 73.9508, "RA_OF_ASC_NODE": 193.7093, "ARG_OF_PERICENTER": 18.7929, "MEAN_ANOMALY": 341.4404, "EPHEMERIS_TYPE": 0, "CLASSIFICATION_TYPE": "U", "NORAD_CAT_ID": 34886, "ELEMENT_SET_NO": 999, "REV_AT_EPOCH": 62908, "BSTAR": 0.0027638496, "MEAN_MOTION_DOT": 0.00105044, "MEAN_MOTION_DDOT": 0}, "tle": {"line1": "1 34886U 93036ACZ 25340.86820053  .00105044  00000+0  27638-2 0  9997", "line2": "2 34886  73.9508 193.7093 0030756  18.7929 341.4404 15.37603061629089"}}, "geometry": {"type": "Point", "coordinates": [-174.01139501273957, 2.0407497282563716]}}, {"type": "Feature", "properties": {"norad_id": 34907, "name": "COSMOS 2251 DEB", "group": "cosmos-2251-debris", "lat": -68.26003653554767, "lon": -81.01374432216163, "alt_km": 446.7624541087953, "timestamp": "2025-12-10T16:57:12.034339+00:00", "meta": {"OBJECT_NAME": "COSMOS 2251 DEB", "OBJECT_ID": "1993-036ADC", "EPOCH": "2025-12-09T11:48:40.868352", "MEAN_MOTION": 15.4100094, "ECCENTRICITY": 0.00199579, "INCLINATION": 73.9697, "RA_OF_ASC_NODE": 55.4845, "ARG_OF_PERICENTER": 346.4549, "MEAN_ANOMALY": 13.612, "EPHEMERIS_TYPE": 0, "CLASSIFICATION_TYPE": "U", "NORAD_CAT_ID": 34907, "ELEMENT_SET_NO": 999, "REV_AT_EPOCH": 87923, "BSTAR": 0.0091510142, "MEAN_MOTION_DOT": 0.00400025, "MEAN_MOTION_DDOT": 0}, "tle": {"line1": "1 34907U 93036ADC 25343.49213968  .00400025  00000+0  91510-2 0  9991", "line2": "2 34907  73.9697  55.4845 0019957 346.4549  13.6120 15.41000940879239"}}, "geometry": {"type": "Point", "coordinates": [-81.01374432216163, -68.26003653554767]}}, {"type": "Feature", "properties": {"norad_id": 34908, "name": "COSMOS 2251 DEB", "group": "cosmos-2251-debris", "lat": -2.777497062184192, "lon": 26.600026206526895, "alt_km": 750.6228914639678, "timestamp": "2025-12-10T16:57:12.034349+00:00", "meta": {"OBJECT_NAME": "COSMOS 2251 DEB", "OBJECT_ID": "1993-036ADD", "EPOCH": "2025-12-09T02:40:40.417824", "MEAN_MOTION": 14.37380886, "ECCENTRICITY": 0.0039928, "INCLINATION": 74.0591, "RA_OF_ASC_NODE": 30.3236, "ARG_OF_PERICENTER": 47.6348, "MEAN_ANOMALY": 340.778, "EPHEMERIS_TYPE": 0, "CLASSIFICATION_TYPE": "U", "NORAD_CAT_ID": 34908, "ELEMENT_SET_NO": 999, "REV_AT_EPOCH": 87227, "BSTAR": 0.00063868598, "MEAN_MOTION_DOT": 1.9e-05, "MEAN_MOTION_DDOT": 0}, "tle": {"line1": "1 34908U 93036ADD 25343.11157891  .00001900  00000+0  63869-3 0  9999", "line2": "2 34908  74.0591  30.3236 0039928  47.6348 340.7780 14.37380886872275"}}, "geometry": {"type": "Point", "coordinates": [26.600026206526895, -2.777497062184192]}}]}